CCSDS_OMM_VERS = 2.0
CREATION_DATE  = 
ORIGINATOR     = 

OBJECT_NAME    = COSMOS 2242
OBJECT_ID      = 1993-024A
CENTER_NAME    = EARTH
REF_FRAME      = TEME
TIME_SYSTEM    = UTC
MEAN_ELEMENT_THEORY = SGP/SGP4

EPOCH          = 2026-04-23T13:32:39.687072
MEAN_MOTION    = 14.96734954
ECCENTRICITY   = .00171162
INCLINATION    = 82.5204
RA_OF_ASC_NODE = 223.7874
ARG_OF_PERICENTER = 150.4546
MEAN_ANOMALY   = 209.7647

EPHEMERIS_TYPE = 0
CLASSIFICATION_TYPE = U
NORAD_CAT_ID   = 22626
ELEMENT_SET_NO = 999
REV_AT_EPOCH   = 78710
BSTAR          = .11824072E-3
MEAN_MOTION_DOT = .1381E-4
MEAN_MOTION_DDOT = 0

CCSDS_OMM_VERS = 2.0
CREATION_DATE  = 
ORIGINATOR     = 

OBJECT_NAME    = SL-16 R/B
OBJECT_ID      = 1993-059B
CENTER_NAME    = EARTH
REF_FRAME      = TEME
TIME_SYSTEM    = UTC
MEAN_ELEMENT_THEORY = SGP/SGP4

EPOCH          = 2026-04-23T15:34:14.259360
MEAN_MOTION    = 14.17238093
ECCENTRICITY   = .00159484
INCLINATION    = 70.9891
RA_OF_ASC_NODE = 276.3148
ARG_OF_PERICENTER = 148.1613
MEAN_ANOMALY   = 212.0478

EPHEMERIS_TYPE = 0
CLASSIFICATION_TYPE = U
NORAD_CAT_ID   = 22803
ELEMENT_SET_NO = 999
REV_AT_EPOCH   = 68590
BSTAR          = -.222635E-6
MEAN_MOTION_DOT = -.48E-6
MEAN_MOTION_DDOT = 0

CCSDS_OMM_VERS = 2.0
CREATION_DATE  = 
ORIGINATOR     = 

OBJECT_NAME    = ARIANE 40 R/B
OBJECT_ID      = 1993-061H
CENTER_NAME    = EARTH
REF_FRAME      = TEME
TIME_SYSTEM    = UTC
MEAN_ELEMENT_THEORY = SGP/SGP4

EPOCH          = 2026-04-24T03:47:21.969888
MEAN_MOTION    = 14.32883595
ECCENTRICITY   = .0011536
INCLINATION    = 98.4846
RA_OF_ASC_NODE = 182.1305
ARG_OF_PERICENTER = 144.9089
MEAN_ANOMALY   = 215.2858

EPHEMERIS_TYPE = 0
CLASSIFICATION_TYPE = U
NORAD_CAT_ID   = 22830
ELEMENT_SET_NO = 999
REV_AT_EPOCH   = 70061
BSTAR          = .68687E-4
MEAN_MOTION_DOT = .145E-5
MEAN_MOTION_DDOT = 0

CCSDS_OMM_VERS = 2.0
CREATION_DATE  = 
ORIGINATOR     = 

OBJECT_NAME    = COSMOS 2278
OBJECT_ID      = 1994-023A
CENTER_NAME    = EARTH
REF_FRAME      = TEME
TIME_SYSTEM    = UTC
MEAN_ELEMENT_THEORY = SGP/SGP4

EPOCH          = 2026-04-24T03:26:57.523776
MEAN_MOTION    = 14.14386391
ECCENTRICITY   = .0010398
INCLINATION    = 71.0531
RA_OF_ASC_NODE = 79.9964
ARG_OF_PERICENTER = 309.9820
MEAN_ANOMALY   = 50.0389

EPHEMERIS_TYPE = 0
CLASSIFICATION_TYPE = U
NORAD_CAT_ID   = 23087
ELEMENT_SET_NO = 999
REV_AT_EPOCH   = 65123
BSTAR          = .15154E-3
MEAN_MOTION_DOT = .243E-5
MEAN_MOTION_DDOT = 0

CCSDS_OMM_VERS = 2.0
CREATION_DATE  = 
ORIGINATOR     = 

OBJECT_NAME    = SL-16 R/B
OBJECT_ID      = 1994-023B
CENTER_NAME    = EARTH
REF_FRAME      = TEME
TIME_SYSTEM    = UTC
MEAN_ELEMENT_THEORY = SGP/SGP4

EPOCH          = 2026-04-24T00:40:44.228352
MEAN_MOTION    = 14.15015471
ECCENTRICITY   = .0005241
INCLINATION    = 71.0002
RA_OF_ASC_NODE = 335.6738
ARG_OF_PERICENTER = 244.1957
MEAN_ANOMALY   = 115.8625

EPHEMERIS_TYPE = 0
CLASSIFICATION_TYPE = U
NORAD_CAT_ID   = 23088
ELEMENT_SET_NO = 999
REV_AT_EPOCH   = 65250
BSTAR          = -.45414E-4
MEAN_MOTION_DOT = -.136E-5
MEAN_MOTION_DDOT = 0

CCSDS_OMM_VERS = 2.0
CREATION_DATE  = 
ORIGINATOR     = 

OBJECT_NAME    = SL-16 R/B
OBJECT_ID      = 1994-074B
CENTER_NAME    = EARTH
REF_FRAME      = TEME
TIME_SYSTEM    = UTC
MEAN_ELEMENT_THEORY = SGP/SGP4

EPOCH          = 2026-04-24T02:37:52.151232
MEAN_MOTION    = 14.79454388
ECCENTRICITY   = .0008056
INCLINATION    = 97.7040
RA_OF_ASC_NODE = 143.0735
ARG_OF_PERICENTER = 77.1184
MEAN_ANOMALY   = 348.8262

EPHEMERIS_TYPE = 0
CLASSIFICATION_TYPE = U
NORAD_CAT_ID   = 23343
ELEMENT_SET_NO = 999
REV_AT_EPOCH   = 69396
BSTAR          = .44362E-4
MEAN_MOTION_DOT = .282E-5
MEAN_MOTION_DDOT = 0

CCSDS_OMM_VERS = 2.0
CREATION_DATE  = 
ORIGINATOR     = 

OBJECT_NAME    = SL-16 R/B
OBJECT_ID      = 1994-077B
CENTER_NAME    = EARTH
REF_FRAME      = TEME
TIME_SYSTEM    = UTC
MEAN_ELEMENT_THEORY = SGP/SGP4

EPOCH          = 2026-04-23T15:20:02.206752
MEAN_MOTION    = 14.15571583
ECCENTRICITY   = .00005488
INCLINATION    = 70.9824
RA_OF_ASC_NODE = 257.9202
ARG_OF_PERICENTER = 132.8081
MEAN_ANOMALY   = 227.3088

EPHEMERIS_TYPE = 0
CLASSIFICATION_TYPE = U
NORAD_CAT_ID   = 23405
ELEMENT_SET_NO = 999
REV_AT_EPOCH   = 62259
BSTAR          = .11143502E-3
MEAN_MOTION_DOT = .17E-5
MEAN_MOTION_DDOT = 0

CCSDS_OMM_VERS = 2.0
CREATION_DATE  = 
ORIGINATOR     = 

OBJECT_NAME    = ARIANE 40+ R/B
OBJECT_ID      = 1995-021B
CENTER_NAME    = EARTH
REF_FRAME      = TEME
TIME_SYSTEM    = UTC
MEAN_ELEMENT_THEORY = SGP/SGP4

EPOCH          = 2026-04-24T02:54:31.169376
MEAN_MOTION    = 14.39802201
ECCENTRICITY   = .0006839
INCLINATION    = 98.4432
RA_OF_ASC_NODE = 184.9718
ARG_OF_PERICENTER = 17.0255
MEAN_ANOMALY   = 11.7507

EPHEMERIS_TYPE = 0
CLASSIFICATION_TYPE = U
NORAD_CAT_ID   = 23561
ELEMENT_SET_NO = 999
REV_AT_EPOCH   = 62578
BSTAR          = .69169E-4
MEAN_MOTION_DOT = .173E-5
MEAN_MOTION_DDOT = 0

CCSDS_OMM_VERS = 2.0
CREATION_DATE  = 
ORIGINATOR     = 

OBJECT_NAME    = SL-16 R/B
OBJECT_ID      = 1995-058B
CENTER_NAME    = EARTH
REF_FRAME      = TEME
TIME_SYSTEM    = UTC
MEAN_ELEMENT_THEORY = SGP/SGP4

EPOCH          = 2026-04-24T03:25:33.484224
MEAN_MOTION    = 14.15505226
ECCENTRICITY   = .0010872
INCLINATION    = 71.0204
RA_OF_ASC_NODE = 84.8252
ARG_OF_PERICENTER = 41.8265
MEAN_ANOMALY   = 318.3687

EPHEMERIS_TYPE = 0
CLASSIFICATION_TYPE = U
NORAD_CAT_ID   = 23705
ELEMENT_SET_NO = 999
REV_AT_EPOCH   = 57428
BSTAR          = -.30025E-4
MEAN_MOTION_DOT = -.106E-5
MEAN_MOTION_DDOT = 0

CCSDS_OMM_VERS = 2.0
CREATION_DATE  = 
ORIGINATOR     = 

OBJECT_NAME    = SL-16 R/B
OBJECT_ID      = 1996-051B
CENTER_NAME    = EARTH
REF_FRAME      = TEME
TIME_SYSTEM    = UTC
MEAN_ELEMENT_THEORY = SGP/SGP4

EPOCH          = 2026-04-24T03:17:39.490368
MEAN_MOTION    = 14.12427284
ECCENTRICITY   = .0012494
INCLINATION    = 70.7598
RA_OF_ASC_NODE = 79.0420
ARG_OF_PERICENTER = 69.5316
MEAN_ANOMALY   = 290.7143

EPHEMERIS_TYPE = 0
CLASSIFICATION_TYPE = U
NORAD_CAT_ID   = 24298
ELEMENT_SET_NO = 999
REV_AT_EPOCH   = 52806
BSTAR          = .71552E-4
MEAN_MOTION_DOT = .83E-6
MEAN_MOTION_DDOT = 0

CCSDS_OMM_VERS = 2.0
CREATION_DATE  = 
ORIGINATOR     = 

OBJECT_NAME    = ORBVIEW 2 (SEASTAR)
OBJECT_ID      = 1997-037A
CENTER_NAME    = EARTH
REF_FRAME      = TEME
TIME_SYSTEM    = UTC
MEAN_ELEMENT_THEORY = SGP/SGP4

EPOCH          = 2026-04-24T00:03:38.115072
MEAN_MOTION    = 14.35523971
ECCENTRICITY   = .000113
INCLINATION    = 98.8640
RA_OF_ASC_NODE = 279.5329
ARG_OF_PERICENTER = 298.6380
MEAN_ANOMALY   = 61.4691

EPHEMERIS_TYPE = 0
CLASSIFICATION_TYPE = U
NORAD_CAT_ID   = 24883
ELEMENT_SET_NO = 999
REV_AT_EPOCH   = 51497
BSTAR          = .816E-4
MEAN_MOTION_DOT = .188E-5
MEAN_MOTION_DDOT = 0

CCSDS_OMM_VERS = 2.0
CREATION_DATE  = 
ORIGINATOR     = 

OBJECT_NAME    = SL-16 R/B
OBJECT_ID      = 1998-043G
CENTER_NAME    = EARTH
REF_FRAME      = TEME
TIME_SYSTEM    = UTC
MEAN_ELEMENT_THEORY = SGP/SGP4

EPOCH          = 2026-04-23T15:15:49.084128
MEAN_MOTION    = 14.26059338
ECCENTRICITY   = .00088515
INCLINATION    = 98.8323
RA_OF_ASC_NODE = 67.3393
ARG_OF_PERICENTER = 241.5249
MEAN_ANOMALY   = 118.5040

EPHEMERIS_TYPE = 0
CLASSIFICATION_TYPE = U
NORAD_CAT_ID   = 25400
ELEMENT_SET_NO = 999
REV_AT_EPOCH   = 44539
BSTAR          = .36337228E-4
MEAN_MOTION_DOT = .41E-6
MEAN_MOTION_DDOT = 0

